[{"OBJECT_NAME":"STARLINK-5170","OBJECT_ID":"2022-136M","EPOCH":"2026-03-09T22:47:38.098464","MEAN_MOTION":15.08834497,"ECCENTRICITY":0.00011991,"INCLINATION":53.2195,"RA_OF_ASC_NODE":342.9211,"ARG_OF_PERICENTER":105.0717,"MEAN_ANOMALY":255.0408,"EPHEMERIS_TYPE":0,"CLASSIFICATION_TYPE":"U","NORAD_CAT_ID":54062,"ELEMENT_SET_NO":999,"REV_AT_EPOCH":18688,"BSTAR":9.6227376e-5,"MEAN_MOTION_DOT":1.244e-5,"MEAN_MOTION_DDOT":0},{"OBJECT_NAME":"DMSP 5D-2 F11 DEB","OBJECT_ID":"1991-082AJ","EPOCH":"2026-03-09T06:39:32.486112","MEAN_MOTION":15.08629375,"ECCENTRICITY":0.00070318,"INCLINATION":98.5181,"RA_OF_ASC_NODE":189.4283,"ARG_OF_PERICENTER":237.8685,"MEAN_ANOMALY":152.6153,"EPHEMERIS_TYPE":0,"CLASSIFICATION_TYPE":"U","NORAD_CAT_ID":28321,"ELEMENT_SET_NO":999,"REV_AT_EPOCH":14288,"BSTAR":0.0082823802,"MEAN_MOTION_DOT":0.00131946,"MEAN_MOTION_DDOT":0}]
